{"fetched_at":"2026-03-29T02:12:04Z","count":15717,"tles":[{"name":"STARLINK-32240","line1":"1 60438U 24144P   26087.51810169  .00001873  00000+0  75354-4 0  9996","line2":"2 60438  53.1603 129.5487 0001262  72.1728 287.9410 15.30196962 92234","category":"Starlink"}]}